MOLNIYA 2-9             
1 07276U 74026A   24181.36754923  .00000142  00000+0  00000+0 0  9991
2 07276  64.2923 126.7443 6445870 270.8603  21.2857  2.45097866267420
MOLNIYA 2-10            
1 07376U 74056A   24165.82282291  .00000780  00000+0  00000+0 0  9990
2 07376  65.1685  17.2177 6846350 279.3429  14.8914  2.01075943364987
MOLNIYA 1-S             
1 07392U 74060A   24181.91349271 -.00000302  00000+0  00000+0 0  9994
2 07392   3.2140 270.4442 0010207 236.9399 201.8898  1.00231598126988
MOLNIYA 1-29            
1 07780U 75036A   24179.93427164  .00000161  00000+0 -14945+0 0  9992
2 07780  63.4721 138.4120 6710753 283.8392  14.4981  2.00581449360492
MOLNIYA 2-14            
1 08195U 75081A   24180.94323730  .00000948  00000+0  00000+0 0  9999
2 08195  63.6523 111.1585 6709667 288.7130  13.1154  2.02093705357897
MOLNIYA 1-32            
1 08601U 76006A   24181.42625180 -.00000581  00000+0  00000+0 0  9991
2 08601  63.6540 207.1964 6832456 282.0477  14.2740  2.00075247 67529
MOLNIYA 1-36            
1 09880U 77021A   24181.44322939 -.00000945  00000+0  00000+0 0  9991
2 09880  63.5748 182.5942 6759001 286.9157  13.2959  2.00692066244276
MOLNIYA 3-8             
1 10455U 77105A   24180.23582957 -.00000170  00000+0  00000+0 0  9998
2 10455  63.6292 254.1882 7057915 282.0422  12.8678  2.00414304342020
MOLNIYA 1-40            
1 10925U 78055A   24181.36692111 -.00000531  00000+0  00000+0 0  9995
2 10925  63.9126 304.6675 7147439 279.4114  12.9275  2.00528557337586
MOLNIYA 3-10            
1 11057U 78095A   24181.48115357  .00000271  00000+0  35751-2 0  9995
2 11057  63.2792 131.9549 5652485 314.8113  11.1759  4.09908020414187
MOLNIYA 3-13            
1 11896U 80063A   24175.65017418 -.00000131  00000+0  00000+0 0  9997
2 11896  63.3460  34.6648 7326527 278.1939  11.9145  2.00576608321934
MOLNIYA 1-52            
1 13012U 81123A   24180.10714538  .00001572  00000+0  21265-1 0  9997
2 13012  61.5462 175.7734 7161560 264.5775  17.6348  2.00753484311455
MOLNIYA 1-53            
1 13070U 82015A   24175.83732748 -.00000925  00000+0 -44043-1 0  9991
2 13070  62.6585 127.5717 6941019 283.3192  13.1592  2.00437247310052
MOLNIYA 3-20            
1 13875U 83015A   24181.64120793 -.00000935  00000+0 -18573-2 0  9993
2 13875  62.0648 239.6097 7184356 266.2352  16.8674  2.00767518238661
MOLNIYA 1-63            
1 15429U 84124A   24182.15927052 -.00001208  00000+0  00000+0 0  9998
2 15429  63.6444  88.0126 7048447 256.2169 346.8596  2.00813930289725
MOLNIYA 3-24            
1 15738U 85040A   24181.40054943  .00000152  00000+0  14287-2 0  9997
2 15738  62.7806 296.1477 6908463 249.7169  27.9211  2.55653956322864
MOLNIYA 3-27            
1 16393U 85117A   24177.40376054 -.00000073  00000+0  00000+0 0  9993
2 16393  63.3870 336.1655 7176343 245.7322  27.3399  2.12400043289879
MOLNIYA 1-69            
1 17078U 86089A   24169.19921634 -.00000930  00000+0  00000+0 0  9992
2 17078  63.8371 110.4433 7028870 252.9103  24.5014  2.00458133275515
MOLNIYA 3-31            
1 17328U 87008A   24181.59837230 -.00000604  00000+0 -82935-3 0  9998
2 17328  63.2397  27.1709 7385841 253.4325  20.3158  2.00577813270808
MOLNIYA 1-71            
1 18946U 88017A   24175.59308382  .00000045  00000+0  47340-3 0  9998
2 18946  63.0079  14.8701 7459507 258.1609  17.4352  2.00672946265847
MOLNIYA 1-75            
1 19807U 89014A   24181.37545017  .00000256  00000+0  00000+0 0  9996
2 19807  63.8382 209.1505 6616248 261.6817  24.0845  2.00569887258893
MOLNIYA 1-80            
1 21118U 91012A   24181.17710602 -.00000617  00000+0  00000+0 0  9999
2 21118  65.0096 257.4688 6487888 267.5260  22.4995  2.05244931246236
MOLNIYA 3-40            
1 21196U 91022A   24181.65558086 -.00000889  00000+0  00000+0 0  9996
2 21196  64.8250 251.5290 6520955 264.7277  23.5280  2.03016910244740
MOLNIYA 1-81            
1 21426U 91043A   24180.25333194  .00000132  00000+0  00000+0 0  9991
2 21426  63.5580 254.6578 6858469 263.1318  21.0981  2.00592704242043
MOLNIYA 3-41            
1 21706U 91065A   24181.72491580 -.00001298  00000+0  00000+0 0  9998
2 21706  63.8603  73.8721 7256780 251.1403  22.9222  2.04363034242117
MOLNIYA 3-42            
1 22178U 92067A   24180.96046647  .00000164  00000+0  00000+0 0  9990
2 22178  64.6662 136.5737 6611261 255.1237  27.8187  2.20434751 96424
MOLNIYA 1-86            
1 22671U 93035A   24181.94134503  .00001631  00000+0  12432-2 0  9997
2 22671  63.0243 163.2292 4894939  19.1057 354.2092  5.63361408394155
MOLNIYA 1-87            
1 22949U 93079A   24175.98886114 -.00001400  00000+0  00000+0 0  9992
2 22949  64.9159   5.3482 6974612 278.0347  14.3783  2.02870646 89895
MOLNIYA 1-88            
1 23420U 94081A   24178.11542516 -.00000058  00000+0  00000+0 0  9992
2 23420  64.4364  30.3043 5902445 269.7493  26.6706  3.34492600138440
MOLNIYA 3-47            
1 23642U 95042A   24181.51894767 -.00000445  00000+0  00000+0 0  9992
2 23642  64.9821 346.6852 6953135 278.0166  14.5721  2.01982180212023
MOLNIYA 1-90            
1 24960U 97054A   24181.45204076 -.00000082  00000+0  41009-2 0  9996
2 24960  64.2902 355.6929 6092021 291.4572  16.0221  3.18685717231683
MOLNIYA 1-91            
1 25485U 98054A   24181.50079799 -.00000075  00000+0  00000+0 0  9993
2 25485  64.0219  33.5736 6823981 290.4482  11.9219  2.36440894196606
MOLNIYA 3-50            
1 25847U 99036A   24181.18186940  .00000024  00000+0 -12510-1 0  9992
2 25847  63.4658 232.2707 7002524 282.2036  13.1538  2.00584765183017
